*******************************************************************************
Ephemeris / WWW_USER Mon Mar 26 22:09:22 2018 Pasadena, USA      / Horizons    
*******************************************************************************
Target body name: Ganymede (503)                  {source: jup310}
Center body name: Solar System Barycenter (0)     {source: DE431mx}
Center-site name: BODY CENTER
*******************************************************************************
Start time      : A.D. 2000-Jan-01 00:00:00.0000 TDB
Stop  time      : A.D. 2005-Jan-01 00:00:00.0000 TDB
Step-size       : 7200 minutes
*******************************************************************************
Center geodetic : 0.00000000,0.00000000,0.0000000 {E-lon(deg),Lat(deg),Alt(km)}
Center cylindric: 0.00000000,0.00000000,0.0000000 {E-lon(deg),Dxy(km),Dz(km)}
Center radii    : (undefined)                                                  
Output units    : AU-D                                                         
Output type     : GEOMETRIC cartesian states
Output format   : 2 (position and velocity)
Reference frame : ICRF/J2000.0                                                 
Coordinate systm: Ecliptic and Mean Equinox of Reference Epoch                 
*******************************************************************************
JDTDB
   X     Y     Z
   VX    VY    VZ
*******************************************************************************
$$SOE
2452804.500000000 = A.D. 2003-Jun-14 00:00:00.0000 TDB 
  -4.301827852514438E+00  3.177353778139966E+00  8.269968112884113E-02
   5.677390940020365E-04 -9.318195377583795E-03  5.194173090149563E-05
2452809.500000000 = A.D. 2003-Jun-19 00:00:00.0000 TDB 
  -4.324805326206121E+00  3.160339113823619E+00  8.376053302996339E-02
  -9.584263375649106E-03 -9.470866436932219E-03 -7.333637159979837E-05
2452814.500000000 = A.D. 2003-Jun-24 00:00:00.0000 TDB 
  -4.336364496319217E+00  3.128070960668044E+00  8.438496775753025E-02
  -6.473008924533984E-03  1.900118391765487E-04  3.241041038828961E-04
2452819.500000000 = A.D. 2003-Jun-29 00:00:00.0000 TDB 
  -4.365585836357738E+00  3.089764502811837E+00  8.457503782942027E-02
   1.831860156185898E-03 -5.821709847298688E-03  1.969857680534175E-04
2452824.500000000 = A.D. 2003-Jul-04 00:00:00.0000 TDB 
  -4.394534996952180E+00  3.070143552063827E+00  8.546558510928623E-02
  -6.430382786626051E-03 -1.177321075624690E-02 -1.228544029833744E-04
2452829.500000000 = A.D. 2003-Jul-09 00:00:00.0000 TDB 
  -4.405438588310263E+00  3.044347358207673E+00  8.633667164275036E-02
  -9.389797705356475E-03 -2.082172366411019E-03  2.042523070621739E-04
2452834.500000000 = A.D. 2003-Jul-14 00:00:00.0000 TDB 
  -4.427450540464703E+00  3.003394117798747E+00  8.650940732752449E-02
   8.444244771991081E-04 -2.318088739454163E-03  3.156541045475318E-04
2452839.500000000 = A.D. 2003-Jul-19 00:00:00.0000 TDB 
  -4.459947580720969E+00  2.977801926828332E+00  8.713150641181733E-02
  -2.549570446252839E-03 -1.195011469391410E-02 -8.453749956942225E-05
2452844.500000000 = A.D. 2003-Jul-24 00:00:00.0000 TDB 
  -4.474137805826591E+00  2.957278887918886E+00  8.815723881647129E-02
  -1.051657470598876E-02 -5.694377223910954E-03  5.518513220639398E-05
2452849.500000000 = A.D. 2003-Jul-29 00:00:00.0000 TDB 
  -4.488850395552966E+00  2.917830923721835E+00  8.846806340737437E-02
  -1.993491611636055E-03 -9.093990427801048E-05  3.646718646445817E-04
2452854.500000000 = A.D. 2003-Aug-03 00:00:00.0000 TDB 
  -4.520977242751433E+00  2.884878466681084E+00  8.881504343039064E-02
   7.180437772660201E-04 -9.968019641235311E-03  2.711099294443545E-05
2452859.500000000 = A.D. 2003-Aug-08 00:00:00.0000 TDB 
  -4.541001787901964E+00  2.866390730105262E+00  8.984355374911018E-02
  -9.413630313169793E-03 -9.391646608778698E-03 -7.100242371265567E-05
2452864.500000000 = A.D. 2003-Aug-13 00:00:00.0000 TDB 
  -4.550705741415448E+00  2.831900745394492E+00  9.039378374027519E-02
  -5.611936718989785E-03  3.205898861034885E-05  3.256658818925663E-04
2452869.500000000 = A.D. 2003-Aug-18 00:00:00.0000 TDB 
  -4.578444001605230E+00  2.792686707477715E+00  9.055315494706004E-02
   2.240674042073574E-03 -6.556329723355557E-03  1.715203245624201E-04
2452874.500000000 = A.D. 2003-Aug-23 00:00:00.0000 TDB 
  -4.604549475669974E+00  2.772114921571128E+00  9.142670377251431E-02
  -6.418340905043246E-03 -1.189421912819367E-02 -1.304207861356967E-04
2452879.500000000 = A.D. 2003-Aug-28 00:00:00.0000 TDB 
  -4.613077206159669E+00  2.744126571438757E+00  9.222812003720886E-02
  -8.675751866388139E-03 -2.007590557191890E-03  2.121607290848407E-04
2452884.500000000 = A.D. 2003-Sep-02 00:00:00.0000 TDB 
  -4.633756759047007E+00  2.701842804081398E+00  9.234984159166854E-02
   1.521281642495816E-03 -2.974947450958905E-03  2.957293714062156E-04
2452889.500000000 = A.D. 2003-Sep-07 00:00:00.0000 TDB 
  -4.663768449045960E+00  2.675662371818924E+00  9.296138605090210E-02
  -2.549769250606358E-03 -1.232731757856324E-02 -1.023372304459763E-04
2452894.500000000 = A.D. 2003-Sep-12 00:00:00.0000 TDB 
  -4.675142959358106E+00  2.653259906807251E+00  9.393158090096310E-02
  -1.004794501264305E-02 -5.515102622911655E-03  6.350174928101816E-05
2452899.500000000 = A.D. 2003-Sep-17 00:00:00.0000 TDB 
  -4.688373690367362E+00  2.612044255426648E+00  9.417415519752059E-02
  -1.135691863368361E-03 -5.288953105333178E-04  3.545062563527979E-04
2452904.500000000 = A.D. 2003-Sep-22 00:00:00.0000 TDB 
  -4.718489505915143E+00  2.578591368446792E+00  9.450542246176270E-02
   8.590913112011990E-04 -1.056677979982360E-02  2.209217523661694E-06
2452909.500000000 = A.D. 2003-Sep-27 00:00:00.0000 TDB 
  -4.735482032625741E+00  2.558724775760230E+00  9.549686228642627E-02
  -9.198365814219383E-03 -9.264510770445107E-03 -6.820972548860369E-05
2452914.500000000 = A.D. 2003-Oct-02 00:00:00.0000 TDB 
  -4.743304079348614E+00  2.522191062152421E+00  9.597062972475566E-02
  -4.727353251859406E-03 -1.257944582721880E-04  3.256953483883600E-04
2452919.500000000 = A.D. 2003-Oct-07 00:00:00.0000 TDB 
  -4.769441075810779E+00  2.482269389342279E+00  9.609894215439320E-02
   2.633347228012766E-03 -7.258221467148998E-03  1.452529049116076E-04
2452924.500000000 = A.D. 2003-Oct-12 00:00:00.0000 TDB 
  -4.792591047198889E+00  2.460851385859184E+00  9.695158751896622E-02
  -6.377893014142775E-03 -1.195355685734058E-02 -1.372006585197289E-04
2452929.500000000 = A.D. 2003-Oct-17 00:00:00.0000 TDB 
  -4.798723192558356E+00  2.430813922624655E+00  9.767978471350640E-02
  -7.922235506816687E-03 -1.923682037887587E-03  2.190640654045119E-04
2452934.500000000 = A.D. 2003-Oct-22 00:00:00.0000 TDB 
  -4.817987549093030E+00  2.387414354073318E+00  9.775033633785594E-02
   2.186541908169274E-03 -3.616447347659995E-03  2.744381512784691E-04
2452939.500000000 = A.D. 2003-Oct-27 00:00:00.0000 TDB 
  -4.845382372279101E+00  2.360779080878067E+00  9.834876297778282E-02
  -2.542469632481098E-03 -1.264133387412253E-02 -1.195182897129615E-04
2452944.500000000 = A.D. 2003-Nov-01 00:00:00.0000 TDB 
  -4.853906040267858E+00  2.336609075226311E+00  9.925896775136364E-02
  -9.531829185942350E-03 -5.308451690417089E-03  7.158007959315144E-05
2452949.500000000 = A.D. 2003-Nov-06 00:00:00.0000 TDB 
  -4.865609566302763E+00  2.293835105317435E+00  9.943258802808018E-02
  -2.762343105238205E-04 -9.642668379535784E-04  3.426619296510640E-04
2452954.500000000 = A.D. 2003-Nov-11 00:00:00.0000 TDB 
  -4.893583618649211E+00  2.260051024677962E+00  9.974695962454451E-02
   9.904017751208802E-04 -1.111259894795906E-02 -2.263116312540756E-05
2452959.500000000 = A.D. 2003-Nov-16 00:00:00.0000 TDB 
  -4.907478330943991E+00  2.238903401988167E+00  1.006967688852876E-01
  -8.939944145577375E-03 -9.089926937998736E-03 -6.494417723533983E-05
2452964.500000000 = A.D. 2003-Nov-21 00:00:00.0000 TDB 
  -4.913401427593291E+00  2.200510409270288E+00  1.010921966795317E-01
  -3.823381165877361E-03 -2.838492579520043E-04  3.241518165960076E-04
2452969.500000000 = A.D. 2003-Nov-26 00:00:00.0000 TDB 
  -4.937826670038539E+00  2.160081858068847E+00  1.011892867392353E-01
   3.008458935999693E-03 -7.924283985494806E-03  1.183401926465241E-04
2452974.500000000 = A.D. 2003-Dec-01 00:00:00.0000 TDB 
  -4.957923061682993E+00  2.137923875297438E+00  1.020172156924822E-01
  -6.309822399067353E-03 -1.195138006035328E-02 -1.431409813440518E-04
2452979.500000000 = A.D. 2003-Dec-06 00:00:00.0000 TDB 
  -4.961651245130899E+00  2.105985961908683E+00  1.026689476464239E-01
  -7.132308356747745E-03 -1.831418771781764E-03  2.249222053734407E-04
2452984.500000000 = A.D. 2003-Dec-11 00:00:00.0000 TDB 
  -4.979423839704181E+00  2.061688673913005E+00  1.026885076414972E-01
   2.837212658240103E-03 -4.240549017691411E-03  2.518477889368690E-04
2452989.500000000 = A.D. 2003-Dec-16 00:00:00.0000 TDB 
  -5.004083354587828E+00  2.034731277110911E+00  1.032713046692765E-01
  -2.527942562495875E-03 -1.289152869825059E-02 -1.359905479755809E-04
2452994.500000000 = A.D. 2003-Dec-21 00:00:00.0000 TDB 
  -5.009733661205122E+00  2.008910356086752E+00  1.041172998752223E-01
  -8.970320323525374E-03 -5.075477556091427E-03  7.941220866007628E-05
2452999.500000000 = A.D. 2003-Dec-26 00:00:00.0000 TDB 
  -5.019872262901033E+00  1.964792336476953E+00  1.042216242891032E-01
   5.801629759838888E-04 -1.395816976936949E-03  3.291540777205568E-04
2453004.500000000 = A.D. 2003-Dec-31 00:00:00.0000 TDB 
  -5.045583695933354E+00  1.930845082879882E+00  1.045180330339843E-01
   1.111774236344826E-03 -1.160357476379653E-02 -4.728615549781363E-05
2453009.500000000 = A.D. 2004-Jan-05 00:00:00.0000 TDB 
  -5.056328874183485E+00  1.908517607262697E+00  1.054218257901927E-01
  -8.639726386929352E-03 -8.868664149546185E-03 -6.117743766126879E-05
